C/2019 O2 (PANSTARRS),e,93.3071,48.2603,129.5845,58.65544,0.0021940,0.83494374,1.4498,01/26.0/2025,2000,g  5.0,4.0
# From MPEC 2024-TP3
C/2019 O3 (Palomar),h,03/08.9289/2021,89.8001,300.4703,60.1144,1.003316,8.821086,2000,3.5,4.0
# From MPEC 2021-P47
A/2019 O4,e,115.0267,354.9280,61.8420,33.25892,0.0051386,0.89044880,9.3050,01/26.0/2025,2000,g 15.5,2.0
# From MPEC 2024-EF7
C/2019 Q1 (Lemmon),h,07/21.9589/2020,155.7268,42.4617,56.2598,1.002249,5.004374,2000,8.5,4.0
# From MPC117072
A/2019 Q2,e,158.9875,188.0950,176.4982,58.71374,0.0021908,0.97849889,0.0000,07/23.2660/2019,2000,g 18.0,2.0
# From MPC117072
P/2019 S2 (PANSTARRS),e,10.4636,93.1802,216.9915,4.746827,0.0953013,0.20470019,206.7581,01/26.0/2025,2000,g 13.5,4.0
# From MPEC 2022-CN4
P/2019 S3 (PANSTARRS),e,8.6936,150.1451,213.0929,3.414665,0.1562003,0.47082231,308.8987,01/26.0/2025,2000,g 18.3,4.0
# From MPEC 2021-S45
C/2019 S4 (Lemmon),e,92.1067,63.1581,71.3725,246.4135,0.0002548,0.98603959,0.0000,04/09.0826/2020,2000,g 11.0,4.0
# From MPEC 2023-N01
A/2019 T1,e,120.8362,6.9362,91.0056,38.80668,0.0040770,0.88981137,6.0012,01/26.0/2025,2000,g 13.0,2.0
# From MPEC 2023-R20
C/2019 T2 (Lemmon),e,111.3934,155.6560,239.4007,4153,0.0000037,0.99936337,0.0000,04/22.6475/2021,2000,g  9.0,4.0
# From MPEC 2023-UR6
C/2019 T3 (ATLAS),e,121.8648,139.5393,112.4833,3975,0.0000039,0.99850233,0.0000,03/04.5461/2021,2000,g  6.8,4.0
# From MPEC 2024-VJ2
C/2019 T4 (ATLAS),e,53.6258,199.9160,351.1084,873.4756,0.0000382,0.99514782,0.0000,06/08.6341/2022,2000,g  5.0,4.0
# From MPEC 2021-P47
P/2019 T5 (ATLAS),e,33.4998,247.6108,189.6102,8.005611,0.0435123,0.80984025,87.1441,01/26.0/2025,2000,g 15.0,4.0
# From MPEC 2021-P47
P/2019 T6 (PANSTARRS),e,18.7004,71.2431,329.0515,5.441888,0.0776389,0.62269877,147.8943,01/26.0/2025,2000,g 15.5,4.0
# From MPC118096
P/2019 U4 (PANSTARRS),e,11.6960,200.0088,181.0739,3.519081,0.1493001,0.47582927,291.6973,01/26.0/2025,2000,g 19.0,4.0
# From MPEC 2025-AH4
C/2019 U5 (PANSTARRS),h,03/29.5419/2023,113.5125,2.6210,181.4530,1.000401,3.623864,2000,4.5,4.0
# From MPEC 2022-H04
C/2019 U6 (Lemmon),e,60.9718,235.7774,329.4452,307.3599,0.0001829,0.99704568,0.0000,06/18.2624/2020,2000,g 10.0,4.0
# From MPEC 2022-N37
C/2019 V1 (Borisov),e,61.9505,83.1479,51.1821,2271,0.0000091,0.99863787,0.0000,07/17.2945/2020,2000,g 11.0,4.0
# From MPEC 2022-L66
P/2019 V2 (Groeller),e,11.8069,189.1525,335.6173,7.494437,0.0480392,0.33169372,75.0436,01/26.0/2025,2000,g 10.0,4.0
# From MPEC 2023-A50
P/2019 W1 (PANSTARRS),e,23.4698,35.3689,18.8639,4.548470,0.1016029,0.26729294,211.9738,01/26.0/2025,2000,g 12.9,4.0
# From MPEC 2021-P47
P/2019 X1 (Pruyne),e,10.2478,43.6791,36.9415,6.178080,0.0641836,0.30396145,129.1759,01/26.0/2025,2000,g 10.4,4.0
# From MPEC 2020-C98
P/2019 X2 (Pan-STARRS),e,15.8951,250.8382,213.4901,3.634683,0.1422343,0.50041675,266.3701,01/26.0/2025,2000,g 18.0,4.0
# From MPC119999
C/2019 Y1 (ATLAS),e,73.3217,31.5053,57.9072,87.95133,0.0011949,0.99060173,0.0000,03/17.0178/2020,2000,g 13.7,4.0
# From MPEC 2025-AH4
P/2019 Y3 (Catalina),e,24.5819,139.3086,2.5489,3.016505,0.1881256,0.69135506,353.0685,01/26.0/2025,2000,g 18.5,4.0
# From MPEC 2024-A43
C/2019 Y4 (ATLAS),e,44.9733,120.7745,177.4224,338.6819,0.0001581,0.99924084,0.0000,05/29.9953/2020,2000,g 11.8,6.0
# From MPEC 2020-L06
C/2019 Y4-A (ATLAS),h,05/30.0415/2020,45.4096,121.1412,177.2551,1.001382,0.255272,2000,11.6,6.0
# From MPEC 2023-J29
C/2019 Y4-B (ATLAS),e,45.1021,120.8823,177.3664,9752,0.0000010,0.99997369,0.0000,05/30.0076/2020,2000,g 12.1,6.0
# From MPEC 2020-L06
C/2019 Y4-C (ATLAS),h,05/29.9939/2020,45.1930,120.8685,177.2880,1.002110,0.256346,2000,12.7,6.0
# From MPEC 2020-L06
C/2019 Y4-D (ATLAS),e,45.2447,121.2319,177.4296,67.62237,0.0017724,0.99621939,0.0000,05/30.0973/2020,2000,g 12.5,6.0
# From MPEC 2023-A50
C/2019 Y5 (PANSTARRS),e,82.7660,51.7560,303.6488,696.6401,0.0000536,0.99292128,0.0000,08/16.8757/2019,2000,g 11.0,4.0
# From MPEC 2023-A50
A/2020 A1,e,149.0318,119.0827,302.3979,25.47575,0.0076650,0.93446710,14.4356,01/26.0/2025,2000,g 18.0,2.0
# From MPEC 2022-YN2
C/2020 A2 (Iwamoto),e,120.5167,286.1999,68.0123,1024,0.0000301,0.99904833,0.0000,01/07.5590/2020,2000,g 13.5,4.0
# From MPEC 2023-A50
C/2020 A3 (ATLAS),e,146.6270,120.8004,268.2523,8114,0.0000013,0.99929096,0.0000,06/27.4813/2019,2000,g  8.0,4.0
# From MPEC 2022-P91
P/2020 A4 (PANSTARRS-Lemmon),e,24.9998,312.2976,144.8665,8.200392,0.0419713,0.65449861,79.3148,01/26.0/2025,2000,g 15.0,4.0
# From MPEC 2020-N08
A/2020 B1,e,18.5362,309.8292,154.8356,51.93242,0.0026336,0.96652661,4.8894,01/26.0/2025,2000,g 21.0,2.0
# From MPEC 2020-HN5
C/2020 B2 (Lemmon),e,55.7533,354.2096,143.6053,67.76895,0.0017667,0.95933169,3.2257,01/26.0/2025,2000,g 10.0,4.0
# From MPEC 2022-N37
C/2020 B3 (Rankin),e,20.7071,185.7760,324.9002,1001,0.0000311,0.99667640,0.0000,10/20.4276/2019,2000,g 13.0,4.0
# From MPEC 2023-KD6
P/2020 B4 (Sheppard),e,11.6044,185.9594,341.9957,7.970997,0.0437961,0.19264887,51.0030,01/26.0/2025,2000,g 10.5,4.0
# From MPEC 2025-AH4
C/2020 F2 (ATLAS),h,07/12.9152/2022,163.5896,250.3045,48.2518,1.003304,8.813666,2000,4.5,4.0
# From MPEC 2021-O56
C/2020 F3 (NEOWISE),e,129.1483,61.0944,37.3749,396.2810,0.0001249,0.99925772,0.0000,07/04.6730/2020,2000,g  7.5,5.2
# From MPEC 2024-UQ8
C/2020 F5 (MASTER),e,52.2242,350.5267,310.6455,166.0381,0.0004607,0.97393992,0.0000,03/16.4425/2021,2000,g  6.5,3.2
# From MPEC 2020-L06
C/2020 F6 (PANSTARRS),e,174.5837,207.8611,344.3721,352.8514,0.0001487,0.99008546,0.0000,04/10.8057/2020,2000,g 14.5,2.8
# From MPEC 2024-A43
C/2020 F7 (Lemmon),e,93.9743,321.8303,227.9665,558.3941,0.0000747,0.99044777,0.0000,11/13.7051/2021,2000,g  7.0,4.0
# From MPEC 2025-AE4
C/2020 F8 (SWAN),e,110.5473,259.7889,68.0957,2506,0.0000079,0.99982772,0.0000,05/26.1850/2020,2000,g 10.0,4.0
# From MPEC 2020-L06
P/2020 G1 (Pimentel),e,18.5107,240.1085,207.6330,3.606953,0.1438777,0.86080653,255.2257,01/26.0/2025,2000,g 17.0,4.0
# From MPEC 2025-AE4
C/2020 H2 (Pruyne),e,124.7862,277.6726,26.5972,183.3990,0.0003968,0.99548186,0.0000,04/27.2498/2020,2000,g 14.0,3.2
# From MPEC 2020-HM1
C/2020 H3 (Wierzchos),p,06/05.7162/2020,62.5292,30.4456,2.300288,270.6227,2000,13.5,4.0
# From MPEC 2025-AE4
C/2020 H4 (Leonard),e,84.2880,307.4864,116.7817,126.6609,0.0006914,0.99260575,0.0000,08/29.1879/2020,2000,g 15.0,3.2
# From MPEC 2024-P23
C/2020 H5 (Robinson),e,70.2396,210.6207,326.2690,5382,0.0000025,0.99826548,0.0000,12/09.9225/2020,2000,g  5.0,4.0
# From MPEC 2024-JU4
C/2020 H6 (ATLAS),e,79.9830,213.7044,20.2085,2209,0.0000095,0.99787294,0.0000,09/29.7536/2021,2000,g  8.0,3.2
# From MPEC 2020-KB7
C/2020 H7 (Lemmon),e,135.9235,323.5194,82.6780,1405,0.0000187,0.99685380,0.0000,06/02.9510/2020,2000,g 11.0,4.0
# From MPEC 2021-N06
C/2020 H8 (PANSTARRS),e,99.7070,68.4446,128.8486,595.2509,0.0000679,0.99216099,0.0000,06/04.7220/2020,2000,g 10.5,4.0
# From MPEC 2022-ED3
A/2020 H9,e,137.8756,213.1465,312.6673,348.8748,0.0001513,0.99265154,0.0000,12/21.9233/2019,2000,g 18.0,2.0
# From MPEC 2023-HN7
C/2020 H11 (PANSTARRS-Lemmon),h,09/13.1326/2020,151.3773,303.0555,91.3809,1.000354,7.621265,2000,8.5,4.0
# From MPEC 2023-KD6
C/2020 J1 (SONEAR),e,142.3062,226.5995,341.6156,55721,0.0000001,0.99993995,0.0000,04/18.2702/2021,2000,g  8.5,3.2
# From MPEC 2025-AH4
C/2020 K1 (PANSTARRS),e,89.6710,94.3669,213.9740,3303,0.0000052,0.99906957,0.0000,05/08.9050/2023,2000,g  5.5,4.0
# From MPEC 2021-N06
C/2020 K2 (PANSTARRS),h,08/05.0415/2020,90.9924,288.4302,67.3235,1.001626,8.880360,2000,10.8,4.0
# From MPEC 2020-KF9
C/2020 K3 (Leonard),p,06/01.0032/2020,129.0152,64.4924,1.583069,28.3546,2000,14.5,4.0
# From MPEC 2020-L06
C/2020 K4 (PANSTARRS),e,125.5849,264.2768,308.8175,23.94580,0.0084112,0.92706864,15.0408,01/26.0/2025,2000,g 16.5,4.0
# From MPEC 2021-R75
C/2020 K5 (PANSTARRS),h,06/04.5965/2021,67.0675,86.1411,249.6399,1.000931,1.539874,2000,11.0,4.0
# From MPEC 2023-N01
C/2020 K6 (Rankin),h,09/15.1190/2021,103.6337,291.5951,44.2979,1.002614,5.866876,2000,8.0,4.0
# From MPEC 2023-A50
C/2020 K7 (PANSTARRS),e,32.0445,286.1281,358.1238,95.29126,0.0010596,0.93293097,2.0334,01/26.0/2025,2000,g  8.0,4.0
# From MPEC 2021-P47
C/2020 K8 (Catalina-ATLAS),h,09/15.5842/2020,31.4024,181.3707,260.0873,1.000294,0.471018,2000,15.0,3.2
# From MPEC 2021-BE3
P/2020 K9 (Lemmon-PANSTARRS),e,23.1942,166.3133,197.0967,4.206615,0.1142365,0.32036856,164.9892,01/26.0/2025,2000,g 12.5,4.0
# From MPEC 2023-C45
P/2020 M1 (PANSTARRS),e,8.5341,142.6098,72.5269,5.313173,0.0804772,0.47324704,149.7509,01/26.0/2025,2000,g 14.5,4.0
# From MPEC 2022-H30
C/2020 M3 (ATLAS),e,23.4726,71.1651,328.6514,27.28553,0.0069152,0.95333529,10.7399,01/26.0/2025,2000,g 14.5,4.0
# From MPEC 2023-N01
A/2020 M4,h,11/23.2084/2020,160.1078,348.6185,104.5129,1.000194,5.942484,2000,14.5,2.0
# From MPEC 2024-NE4
P/2020 MK4 (PANSTARRS),e,6.7827,0.6755,93.3006,6.222408,0.0634989,0.01461720,308.6302,01/26.0/2025,2000,g  8.0,4.0
# From MPEC 2023-FK0
C/2020 M5 (ATLAS),h,08/19.8268/2021,93.1835,352.0391,126.2462,1.000174,2.999654,2000,9.0,4.0
# From MPEC 2022-GA9
C/2020 N1 (PANSTARRS),h,03/13.0022/2021,29.7619,279.8615,186.8155,1.000776,1.316995,2000,12.5,4.0
# From MPEC 2021-P47
C/2020 N2 (ATLAS),e,161.0379,257.1862,331.2403,102.0166,0.0009565,0.98249546,0.0000,08/24.3566/2020,2000,g 16.0,3.2
# From MPEC 2024-JU4
C/2020 O2 (Amaral),e,71.7614,256.7949,10.2034,137253,0.0000000,0.99996460,0.0000,08/27.5487/2021,2000,g  8.0,3.2
# From MPEC 2023-C45
P/2020 O3 (PANSTARRS),e,8.4444,266.8177,81.3332,4.646585,0.0984018,0.10243476,143.7248,01/26.0/2025,2000,g 12.0,4.0
# From MPEC 2021-BE3
C/2020 P1 (NEOWISE),h,10/21.1061/2020,45.1495,53.4798,8.9204,1.000419,0.341226,2000,14.0,3.2
# From MPEC 2024-JU4
C/2020 P3 (ATLAS),h,04/22.6899/2021,61.8674,19.4794,82.3343,1.003470,6.814880,2000,6.0,4.0
# From MPEC 2022-PB4
C/2020 PV6 (PANSTARRS),e,128.1680,329.1347,71.3013,41.78875,0.0036485,0.94516506,4.4439,01/26.0/2025,2000,g 10.0,4.0
# From MPEC 2022-L66
